OSCAR 7 (AO-7)          
1 07530U 74089B   26170.47889307 -.00000047  00000+0 -14457-5 0  9993
2 07530 101.9899 183.7495 0012599 125.8414  33.8516 12.53698153360808
PHASE 3B (AO-10)        
1 14129U 83058B   26170.31181399  .00000155  00000+0  00000+0 0  9991
2 14129  25.9140 219.2125 6010101 116.2527 316.1180  2.05869727295535
UOSAT 2 (UO-11)         
1 14781U 84021B   26170.77194230  .00001010  00000+0  10837-3 0  9998
2 14781  97.8058 136.3177 0007878 164.0988 196.0479 14.90788570257519
LUSAT (LO-19)           
1 20442U 90005G   26170.62386815  .00000068  00000+0  40884-4 0  9992
2 20442  98.8849 192.4967 0011244 193.7299 166.3580 14.34123793902748
EYESAT A (AO-27)        
1 22825U 93061C   26170.72690550  .00000069  00000+0  43200-4 0  9995
2 22825  98.6880 238.1396 0009544  93.2451 266.9824 14.30942876707362
ITAMSAT (IO-26)         
1 22826U 93061D   26170.70556032  .00000068  00000+0  42305-4 0  9994
2 22826  98.6829 238.0360 0010015  78.3690 281.8617 14.31369842707677
RADIO ROSTO (RS15)      
1 23439U 94085A   26170.95403191 -.00000030  00000+0  34180-3 0  9997
2 23439  64.8186 298.7412 0156025   3.3633 356.8304 11.27583495296210
JAS-2 (FO-29)           
1 24278U 96046B   26170.30734483 -.00000013  00000+0  19676-4 0  9993
2 24278  98.5238  18.8890 0350921  90.9460 273.1898 13.53274520473455
TECHSAT 1B (GO-32)      
1 25397U 98043D   26170.59313746  .00000028  00000+0  32334-4 0  9992
2 25397  99.0068 163.4125 0001179 158.0468 202.0760 14.24428772451673
ISS (ZARYA)             
1 25544U 98067A   26170.83410215  .00008787  00000+0  16559-3 0  9998
2 25544  51.6328 286.9925 0004571 206.3215 153.7542 15.49322400572162
PCSAT (NO-44)           
1 26931U 01043C   26170.88328392  .00000060  00000+0  53224-4 0  9993
2 26931  67.0502 237.2987 0006067 264.7337  95.3072 14.31956919290838
SAUDISAT 1C (SO-50)     
1 27607U 02058C   26170.85258547  .00000740  00000+0  10489-3 0  9992
2 27607  64.5513 120.7383 0075161 261.9782  97.2791 14.83051819264857
CUTE-1 (CO-55)          
1 27844U 03031E   26170.56610412  .00000202  00000+0  10624-3 0  9992
2 27844  98.6736 179.0951 0009689 171.1603 188.9749 14.24336935192018
CUBESAT XI-IV (CO-57)   
1 27848U 03031J   26170.97745452  .00000169  00000+0  93103-4 0  9990
2 27848  98.6765 179.2116 0009219 188.6492 171.4529 14.23622052191779
MOZHAETS 4 (RS22)       
1 27939U 03042A   26170.94721912  .00000598  00000+0  10039-3 0  9997
2 27939  98.3468 355.3836 0009922 259.8774 260.9585 14.73470830215951
CUBESAT XI-V            
1 28895U 05043F   26170.37304894  .00001074  00000+0  17676-3 0  9999
2 28895  98.2987 326.0406 0013797 193.6141 166.4695 14.72636457102072
CUTE-1.7+APD II (CO-65) 
1 32785U 08021C   26170.90038654  .00004758  00000+0  30099-3 0  9994
2 32785  97.8277 152.3753 0009493  30.2474 329.9300 15.09473052985608
SEEDS II (CO-66)        
1 32791U 08021J   26170.55102446  .00014814  00000+0  46963-3 0  9994
2 32791  97.7522 168.5617 0000744 349.7207  10.4018 15.32817335987654
YUBILEINY (RS30)        
1 32953U 08025A   26170.91519419 -.00000062  00000+0 -51265-3 0  9993
2 32953  82.5040 353.7424 0018743 307.6665  52.2714 12.43179203820033
KKS-1 (KISEKI)          
1 33499U 09002H   26170.88777432  .00001005  00000+0  13013-3 0  9997
2 33499  98.1188  93.3729 0006434 285.3358  74.7144 14.83129807936591
SWISSCUBE               
1 35932U 09051B   26170.70010254  .00000707  00000+0  14927-3 0  9991
2 35932  98.4033  78.6322 0006134 194.3289 165.7739 14.62485509889523
BEESAT-1                
1 35933U 09051C   26170.71084495  .00000603  00000+0  13077-3 0  9991
2 35933  98.3961  78.2733 0004371 207.4388 152.6582 14.61723870889551
ITUPSAT1                
1 35935U 09051E   26170.70394443  .00000548  00000+0  12315-3 0  9991
2 35935  98.4046  77.4556 0006376 224.8992 135.1693 14.60443828889104
XIWANG-1 (HOPE-1)       
1 36122U 09072B   26170.90384984  .00000290  00000+0  87699-3 0  9995
2 36122 100.4033 124.6932 0006916 224.6028 135.4529 13.16440978793360
O/OREOS (USA 219)       
1 37224U 10062C   26170.74099156  .00001640  00000+0  16046-3 0  9994
2 37224  71.9701  74.5547 0012641  57.6835 302.5558 14.93753061117023
JUGNU                   
1 37839U 11058B   26170.40974200  .00000394  00000+0  66043-4 0  9995
2 37839  19.9617 294.9273 0018623 100.5982 300.1635 14.13777315759341
SRMSAT                  
1 37841U 11058D   26170.35988047  .00000354  00000+0  48474-4 0  9990
2 37841  19.9728  46.3158 0011744 227.6220 288.1945 14.11575972758128
STRAND-1                
1 39090U 13009E   26170.42314841  .00000193  00000+0  79379-4 0  9998
2 39090  98.3923 350.6024 0007842 217.8573 142.2063 14.37164306697387
ZACUBE-1 (TSHEPISOSAT)  
1 39417U 13066B   26170.94018519  .00002355  00000+0  18525-3 0  9991
2 39417  97.8072 133.2914 0041152 238.1921 121.5293 15.01201080681142
GOMX-1                  
1 39430U 13066Q   26170.97778008  .00001472  00000+0  22564-3 0  9992
2 39430  97.6476  11.2640 0130108  68.7094 292.7947 14.69468821670328
